[{"OBJECT_NAME":"OBJECT M","OBJECT_ID":"2024-205M","EPOCH":"2026-03-09T22:23:47.520096","MEAN_MOTION":15.27663844,"ECCENTRICITY":0.00036602,"INCLINATION":97.3915,"RA_OF_ASC_NODE":144.193,"ARG_OF_PERICENTER":310.2554,"MEAN_ANOMALY":49.8364,"EPHEMERIS_TYPE":0,"CLASSIFICATION_TYPE":"U","NORAD_CAT_ID":61905,"ELEMENT_SET_NO":999,"REV_AT_EPOCH":7334,"BSTAR":0.00036391974,"MEAN_MOTION_DOT":9.771e-5,"MEAN_MOTION_DDOT":0},{"OBJECT_NAME":"STARLINK-33623","OBJECT_ID":"2025-035W","EPOCH":"2026-03-09T22:26:16.939392","MEAN_MOTION":15.27588777,"ECCENTRICITY":0.00011499,"INCLINATION":43.0006,"RA_OF_ASC_NODE":146.0073,"ARG_OF_PERICENTER":278.8032,"MEAN_ANOMALY":81.269,"EPHEMERIS_TYPE":0,"CLASSIFICATION_TYPE":"U","NORAD_CAT_ID":63072,"ELEMENT_SET_NO":999,"REV_AT_EPOCH":5976,"BSTAR":0.0012671021,"MEAN_MOTION_DOT":0.0003478,"MEAN_MOTION_DDOT":0}]
